{
  "type": "FeatureCollection",
  "features": [
    {
      "type": "Feature",
      "properties": {
        "norad_id": 39554,
        "name": "COSMOS 2251 DEB",
        "group": "cosmos-2251-debris",
        "lat": 51.813647449985126,
        "lon": -91.45103184534395,
        "alt_km": 523.2631907549976,
        "timestamp": "2025-12-21T03:56:51.230575+00:00",
        "meta_object_name": "COSMOS 2251 DEB",
        "meta_object_id": "1993-036BUL",
        "meta_epoch": "2025-12-10T06:12:03.924864",
        "meta_mean_motion": 15.10130993,
        "meta_eccentricity": 0.0002993,
        "meta_inclination": 74.0187,
        "meta_ra_of_asc_node": 269.7383,
        "meta_arg_of_pericenter": 74.7531,
        "meta_mean_anomaly": 81.5927,
        "meta_ephemeris_type": 0,
        "meta_classification_type": "U",
        "meta_norad_cat_id": 39554,
        "meta_element_set_no": 999,
        "meta_rev_at_epoch": 64347,
        "meta_bstar": 0.0046896,
        "meta_mean_motion_dot": 0.000773,
        "meta_mean_motion_ddot": 0,
        "tle_line1": "1 39554U 93036BUL 25344.25837876  .00077300  00000+0  46896-2 0  9992",
        "tle_line2": "2 39554  74.0187 269.7383 0002993  74.7531  81.5927 15.10130993643471"
      },
      "geometry": {
        "type": "Point",
        "coordinates": [
          -91.45103184534395,
          51.813647449985126
        ]
      }
    },
    {
      "type": "Feature",
      "properties": {
        "norad_id": 39583,
        "name": "COSMOS 2251 DEB",
        "group": "cosmos-2251-debris",
        "lat": 1.2940746887053298,
        "lon": -128.59688853853615,
        "alt_km": 601.9728197884215,
        "timestamp": "2025-12-21T03:56:51.230584+00:00",
        "meta_object_name": "COSMOS 2251 DEB",
        "meta_object_id": "1993-036BUN",
        "meta_epoch": "2025-12-20T09:51:33.318720",
        "meta_mean_motion": 14.6056655,
        "meta_eccentricity": 0.01369587,
        "meta_inclination": 73.9317,
        "meta_ra_of_asc_node": 232.4786,
        "meta_arg_of_pericenter": 344.3016,
        "meta_mean_anomaly": 15.392,
        "meta_ephemeris_type": 0,
        "meta_classification_type": "U",
        "meta_norad_cat_id": 39583,
        "meta_element_set_no": 999,
        "meta_rev_at_epoch": 61891,
        "meta_bstar": 0.00096933589,
        "meta_mean_motion_dot": 5.347e-05,
        "meta_mean_motion_ddot": 0,
        "tle_line1": "1 39583U 93036BUN 25354.41080230  .00005347  00000+0  96934-3 0  9998",
        "tle_line2": "2 39583  73.9317 232.4786 0136958 344.3016  15.3920 14.60566550618918"
      },
      "geometry": {
        "type": "Point",
        "coordinates": [
          -128.59688853853615,
          1.2940746887053298
        ]
      }
    },
    {
      "type": "Feature",
      "properties": {
        "norad_id": 39585,
        "name": "COSMOS 2251 DEB",
        "group": "cosmos-2251-debris",
        "lat": 46.377594619668315,
        "lon": 87.80947331037373,
        "alt_km": 690.41231233088,
        "timestamp": "2025-12-21T03:56:51.230593+00:00",
        "meta_object_name": "COSMOS 2251 DEB",
        "meta_object_id": "1993-036BUQ",
        "meta_epoch": "2025-12-17T13:45:47.587680",
        "meta_mean_motion": 14.58681164,
        "meta_eccentricity": 0.00655713,
        "meta_inclination": 74.0421,
        "meta_ra_of_asc_node": 292.1145,
        "meta_arg_of_pericenter": 51.6529,
        "meta_mean_anomaly": 309.0503,
        "meta_ephemeris_type": 0,
        "meta_classification_type": "U",
        "meta_norad_cat_id": 39585,
        "meta_element_set_no": 999,
        "meta_rev_at_epoch": 62591,
        "meta_bstar": 0.00024435975,
        "meta_mean_motion_dot": 1.143e-05,
        "meta_mean_motion_ddot": 0,
        "tle_line1": "1 39585U 93036BUQ 25351.57346745  .00001143  00000+0  24436-3 0  9998",
        "tle_line2": "2 39585  74.0421 292.1145 0065571  51.6529 309.0503 14.58681164625913"
      },
      "geometry": {
        "type": "Point",
        "coordinates": [
          87.80947331037373,
          46.377594619668315
        ]
      }
    },
    {
      "type": "Feature",
      "properties": {
        "norad_id": 39586,
        "name": "COSMOS 2251 DEB",
        "group": "cosmos-2251-debris",
        "lat": -47.262664297001436,
        "lon": 51.20686047199417,
        "alt_km": 858.857693168763,
        "timestamp": "2025-12-21T03:56:51.230602+00:00",
        "meta_object_name": "COSMOS 2251 DEB",
        "meta_object_id": "1993-036BUR",
        "meta_epoch": "2025-12-15T23:50:08.053728",
        "meta_mean_motion": 14.21232237,
        "meta_eccentricity": 0.01008868,
        "meta_inclination": 74.0082,
        "meta_ra_of_asc_node": 222.4068,
        "meta_arg_of_pericenter": 356.2296,
        "meta_mean_anomaly": 66.1426,
        "meta_ephemeris_type": 0,
        "meta_classification_type": "U",
        "meta_norad_cat_id": 39586,
        "meta_element_set_no": 999,
        "meta_rev_at_epoch": 61018,
        "meta_bstar": 0.00043436803,
        "meta_mean_motion_dot": 9.7e-06,
        "meta_mean_motion_ddot": 0,
        "tle_line1": "1 39586U 93036BUR 25349.99314877  .00000970  00000+0  43437-3 0  9992",
        "tle_line2": "2 39586  74.0082 222.4068 0100886 356.2296  66.1426 14.21232237610182"
      },
      "geometry": {
        "type": "Point",
        "coordinates": [
          51.20686047199417,
          -47.262664297001436
        ]
      }
    },
    {
      "type": "Feature",
      "properties": {
        "norad_id": 39591,
        "name": "COSMOS 2251 DEB",
        "group": "cosmos-2251-debris",
        "lat": 22.325070265969355,
        "lon": -122.10489788101327,
        "alt_km": 735.9501600366457,
        "timestamp": "2025-12-21T03:56:51.230611+00:00",
        "meta_object_name": "COSMOS 2251 DEB",
        "meta_object_id": "1993-036BUW",
        "meta_epoch": "2025-12-19T09:05:27.177792",
        "meta_mean_motion": 14.41824759,
        "meta_eccentricity": 0.002936,
        "meta_inclination": 74.0196,
        "meta_ra_of_asc_node": 234.4485,
        "meta_arg_of_pericenter": 346.2019,
        "meta_mean_anomaly": 131.9176,
        "meta_ephemeris_type": 0,
        "meta_classification_type": "U",
        "meta_norad_cat_id": 39591,
        "meta_element_set_no": 999,
        "meta_rev_at_epoch": 61872,
        "meta_bstar": 0.0001972,
        "meta_mean_motion_dot": 6.21e-06,
        "meta_mean_motion_ddot": 0,
        "tle_line1": "1 39591U 93036BUW 25353.37878678  .00000621  00000+0  19720-3 0  9990",
        "tle_line2": "2 39591  74.0196 234.4485 0029360 346.2019 131.9176 14.41824759618728"
      },
      "geometry": {
        "type": "Point",
        "coordinates": [
          -122.10489788101327,
          22.325070265969355
        ]
      }
    },
    {
      "type": "Feature",
      "properties": {
        "norad_id": 40218,
        "name": "COSMOS 2251 DEB",
        "group": "cosmos-2251-debris",
        "lat": -74.00667293563312,
        "lon": 145.61504731751248,
        "alt_km": 751.4354979563732,
        "timestamp": "2025-12-21T03:56:51.230620+00:00",
        "meta_object_name": "COSMOS 2251 DEB",
        "meta_object_id": "1993-036BUX",
        "meta_epoch": "2025-12-14T10:48:31.251744",
        "meta_mean_motion": 14.41597705,
        "meta_eccentricity": 0.00168728,
        "meta_inclination": 74.0298,
        "meta_ra_of_asc_node": 245.6562,
        "meta_arg_of_pericenter": 328.6,
        "meta_mean_anomaly": 31.4147,
        "meta_ephemeris_type": 0,
        "meta_classification_type": "U",
        "meta_norad_cat_id": 40218,
        "meta_element_set_no": 999,
        "meta_rev_at_epoch": 58886,
        "meta_bstar": 0.00046023204,
        "meta_mean_motion_dot": 1.474e-05,
        "meta_mean_motion_ddot": 0,
        "tle_line1": "1 40218U 93036BUX 25348.45036171  .00001474  00000+0  46023-3 0  9998",
        "tle_line2": "2 40218  74.0298 245.6562 0016872 328.6000  31.4147 14.41597705588868"
      },
      "geometry": {
        "type": "Point",
        "coordinates": [
          145.61504731751248,
          -74.00667293563312
        ]
      }
    },
    {
      "type": "Feature",
      "properties": {
        "norad_id": 40223,
        "name": "COSMOS 2251 DEB",
        "group": "cosmos-2251-debris",
        "lat": -26.002144487073892,
        "lon": 63.287874256981006,
        "alt_km": 552.3427320501187,
        "timestamp": "2025-12-21T03:56:51.230629+00:00",
        "meta_object_name": "COSMOS 2251 DEB",
        "meta_object_id": "1993-036BVC",
        "meta_epoch": "2025-12-20T12:10:32.022912",
        "meta_mean_motion": 15.04400789,
        "meta_eccentricity": 0.00154313,
        "meta_inclination": 73.937,
        "meta_ra_of_asc_node": 72.7196,
        "meta_arg_of_pericenter": 279.9109,
        "meta_mean_anomaly": 95.2538,
        "meta_ephemeris_type": 0,
        "meta_classification_type": "U",
        "meta_norad_cat_id": 40223,
        "meta_element_set_no": 999,
        "meta_rev_at_epoch": 59491,
        "meta_bstar": 0.0026290645,
        "meta_mean_motion_dot": 0.00036973,
        "meta_mean_motion_ddot": 0,
        "tle_line1": "1 40223U 93036BVC 25354.50731508  .00036973  00000+0  26291-2 0  9999",
        "tle_line2": "2 40223  73.9370  72.7196 0015431 279.9109  95.2538 15.04400789594913"
      },
      "geometry": {
        "type": "Point",
        "coordinates": [
          63.287874256981006,
          -26.002144487073892
        ]
      }
    }
  ]
}